KUIPER-00053            
1 64513U 25134P   25223.36722318  .00039305  00000+0  10758-2 0  9992
2 64513  51.8777  94.8117 0001902 265.0005  95.0764 15.36955200  8764
KUIPER-00054            
1 64514U 25134Q   25223.37378885  .00029339  00000+0  81273-3 0  9997
2 64514  51.8755  94.8523 0002752 270.2646  89.8025 15.36723904  8760
KUIPER-00055            
1 64515U 25134R   25223.35312511  .00005093  00000+0  14724-3 0  9998
2 64515  51.8768  94.7225 0000718 195.8533 164.2432 15.37381445  8761
KUIPER-00056            
1 64516U 25134S   25223.38103507  .00036740  00000+0  10220-2 0  9994
2 64516  51.8721  94.8933 0003138 272.8551  87.2076 15.36480754  8763
KUIPER-00057            
1 64517U 25134T   25223.34653256  .00058463  00000+0  17089-2 0  9998
2 64517  51.8699  95.3907 0006468 285.2362  74.7908 15.34704168  8752
KUIPER-00058            
1 64518U 25134U   25222.93610758  .00030667  00000+0  86321-3 0  9995
2 64518  51.8722  97.1544 0004395 279.4230  80.6259 15.36198129  8697
KUIPER-00059            
1 64519U 25134V   25223.35579095  .00033970  00000+0  92179-3 0  9999
2 64519  51.8769  94.7357 0001078 204.9016 155.1919 15.37293260  8766
KUIPER-00060            
1 64520U 25134W   25223.36231166  .00048402  00000+0  13122-2 0  9992
2 64520  51.8767  94.7809 0001924 227.3799 132.7026 15.37156554  8758
